GLOBALSTAR M045         
1 25676U 99019A   25210.64782225 -.00000089  00000+0  41641-4 0  9997
2 25676  51.9943 184.2469 0000450 329.1984 202.5345 12.27064375198600
GLOBALSTAR M019         
1 25677U 99019B   25210.60133906 -.00000060  00000+0  31256-3 0  9999
2 25677  51.9904 317.7319 0001582  75.1152  35.3253 12.13875866190294
GLOBALSTAR M044         
1 25678U 99019C   25210.69433481 -.00000102  00000+0 -25162-3 0  9997
2 25678  51.9965 274.1536 0006386 125.0237  25.0948 11.90253973176389
GLOBALSTAR M042         
1 25679U 99019D   25210.52116240 -.00000079  00000+0  12185-3 0  9994
2 25679  52.0020 291.4471 0002849  36.7361  65.4521 12.22084770190430
GLOBALSTAR M025         
1 25770U 99031A   25210.85694589 -.00000060  00000+0  23668-3 0  9991
2 25770  51.9830  60.4237 0001150 203.9543 168.7479 11.22562389486508
GLOBALSTAR M049         
1 25771U 99031B   25210.86295689 -.00000002  00000+0  21968-2 0  9997
2 25771  51.9876  97.3192 0003465  71.6395 288.4778 11.12117828122179
GLOBALSTAR M047         
1 25772U 99031C   25210.89019964 -.00000055  00000+0  39437-3 0  9990
2 25772  51.9837  90.1467 0016708 338.6565  21.3543 11.31929215475944
GLOBALSTAR M052         
1 25773U 99031D   25210.56575023 -.00000055  00000+0  37591-3 0  9997
2 25773  51.9828 206.0698 0002863 248.9731 276.0198 11.15060256483233
